     2.100          NAVIGATION                              RINEX VERSION / TYPE
fic2rin                                 09/27/2017 00:04:52 PGM / RUN BY / DATE
                                                            END OF HEADER
26 17  9 26 11 59 44.0 -.415094196796D-03  .111413100967D-10  .000000000000D+00
     .179000000000D+03  .368750000000D+01  .479341395065D-08 -.181551909867D+01
    -.298023223877D-07  .193267327268D-02  .419467687607D-05  .515377129364D+04
     .215984000000D+06 -.353902578354D-07 -.477014349105D+00 -.409781932831D-07
     .958115311589D+00  .298968750000D+03 -.197437793905D-01 -.837106297409D-08
     .596453416107D-10  .100000000000D+01  .196800000000D+04  .000000000000D+00
     .240000000000D+01  .000000000000D+00  .745058059692D-08  .691000000000D+03
     .212106000000D+06  .400000000000D+01
24 17  9 26 13 59 44.0 -.401413999498D-04 -.454747350886D-12  .000000000000D+00
     .850000000000D+02  .669375000000D+02  .479912847439D-08  .177126901155D+01
     .344216823578D-05  .597095396370D-02  .686757266521D-05  .515367967033D+04
     .223184000000D+06 -.856816768646D-07 -.154555359195D+01  .614672899246D-07
     .943800975636D+00  .237343750000D+03  .465980823457D+00 -.831213194795D-08
     .235724104569D-10  .100000000000D+01  .196800000000D+04  .000000000000D+00
     .240000000000D+01  .000000000000D+00  .279396772385D-08  .853000000000D+03
     .216006000000D+06  .400000000000D+01
26 17  9 26 13 59 44.0 -.415014103055D-03  .111413100967D-10  .000000000000D+00
     .180000000000D+03 -.190625000000D+01  .470519599030D-08 -.765074511076D+00
    -.152736902237D-06  .193310040049D-02  .406242907047D-05  .515377264977D+04
     .223184000000D+06  .149011611938D-07 -.477074444317D+00 -.651925802231D-07
     .958115571988D+00  .296343750000D+03 -.200656974397D-01 -.838927801853D-08
     .192865176466D-10  .100000000000D+01  .196800000000D+04  .000000000000D+00
     .240000000000D+01  .000000000000D+00  .745058059692D-08  .692000000000D+03
     .216006000000D+06  .400000000000D+01
 1 17  9 26 14  0  0.0 -.246893614531D-05 -.568434188608D-12  .000000000000D+00
     .970000000000D+02 -.211250000000D+02  .451590239118D-08  .147381379657D+01
    -.951811671257D-06  .704385060817D-02  .864267349243D-05  .515368124771D+04
     .223200000000D+06 -.726431608200D-07  .163677030413D+01  .191852450371D-06
     .968316872799D+00  .217437500000D+03  .626553484068D+00 -.805069248651D-08
     .237509893240D-09  .100000000000D+01  .196800000000D+04  .000000000000D+00
     .240000000000D+01  .000000000000D+00  .558793544769D-08  .609000000000D+03
     .216006000000D+06  .400000000000D+01
 2 17  9 26 14  0  0.0  .321001745760D-03 -.920863385545D-11  .000000000000D+00
     .187000000000D+03 -.186250000000D+02  .483270130141D-08  .188007078756D+01
    -.127032399178D-05  .170951820910D-01  .800751149654D-05  .515359249496D+04
     .223200000000D+06 -.121071934700D-06  .158077329497D+01 -.465661287308D-06
     .947298489459D+00  .219968750000D+03 -.195353025338D+01 -.809390857235D-08
     .256439253153D-09  .100000000000D+01  .196800000000D+04  .000000000000D+00
     .240000000000D+01  .000000000000D+00 -.204890966415D-07  .699000000000D+03
     .216006000000D+06  .400000000000D+01
 3 17  9 26 14  0  0.0 -.633541494608D-04  .454747350886D-11  .000000000000D+00
     .990000000000D+02 -.108750000000D+02  .482020078071D-08  .503196989797D+00
    -.575557351112D-06  .100720906630D-02  .671856105328D-05  .515364618683D+04
     .223200000000D+06  .186264514923D-07  .267957556863D+01  .372529029846D-08
     .960424703327D+00  .246593750000D+03  .472047470123D+00 -.814212486647D-08
    -.126790995640D-09  .100000000000D+01  .196800000000D+04  .000000000000D+00
     .240000000000D+01  .000000000000D+00  .232830643654D-08  .611000000000D+03
     .216006000000D+06  .400000000000D+01
 4 17  9 26 14  0  0.0  .339937396348D-04  .761701812735D-11  .000000000000D+00
     .180000000000D+03 -.655625000000D+02  .458590530708D-08 -.237835452164D+01
    -.358186662197D-05  .123600302031D-01  .761635601521D-05  .515366990662D+04
     .223200000000D+06  .521540641785D-07  .489770845539D+00 -.236555933952D-06
     .957233928315D+00  .230750000000D+03  .441887757896D+00 -.807640784338D-08
     .907180644858D-10  .100000000000D+01  .196800000000D+04  .000000000000D+00
     .240000000000D+01  .630000000000D+02 -.558793544769D-08  .692000000000D+03
     .216006000000D+06  .400000000000D+01
 5 17  9 26 14  0  0.0 -.280765816569D-04  .136424205266D-11  .000000000000D+00
     .173000000000D+03 -.151250000000D+02  .504878173060D-08 -.188021601144D+01
    -.789761543274D-06  .521352828946D-02  .659190118313D-05  .515355891037D+04
     .223200000000D+06  .651925802231D-07  .266109407542D+01 -.130385160446D-07
     .947346493653D+00  .245343750000D+03  .592414112403D+00 -.825962976102D-08
    -.500020827875D-10  .100000000000D+01  .196800000000D+04  .000000000000D+00
     .240000000000D+01  .000000000000D+00 -.107102096081D-07  .685000000000D+03
     .216006000000D+06  .400000000000D+01
 6 17  9 26 14  0  0.0  .400356948376D-03  .272848410532D-11  .000000000000D+00
     .178000000000D+03 -.150937500000D+02  .443697053192D-08  .167085586821D+01
    -.774860382080D-06  .559896230698D-03  .805035233498D-05  .515375343704D+04
     .223200000000D+06  .558793544769D-08  .162840935134D+01 -.409781932831D-07
     .968071806225D+00  .226468750000D+03 -.115706094540D+01 -.793104464556D-08
     .192508018732D-09  .100000000000D+01  .196800000000D+04  .000000000000D+00
     .240000000000D+01  .000000000000D+00  .465661287308D-08  .690000000000D+03
     .216006000000D+06  .400000000000D+01
 7 17  9 26 14  0  0.0  .301120337099D-03 -.488853402203D-11  .000000000000D+00
     .181000000000D+03  .715312500000D+02  .441232664826D-08  .841927980491D+00
     .384822487831D-05  .110641942592D-01  .761076807976D-05  .515372375679D+04
     .223200000000D+06 -.162050127983D-06 -.148996631542D+01  .167638063431D-06
     .960744760544D+00  .233062500000D+03 -.255567754890D+01 -.814712507475D-08
    -.175007289756D-10  .100000000000D+01  .196800000000D+04  .000000000000D+00
     .240000000000D+01  .000000000000D+00 -.111758708954D-07  .693000000000D+03
     .216006000000D+06  .400000000000D+01
 8 17  9 26 14  0  0.0 -.748694874346D-04 -.136424205266D-11  .000000000000D+00
     .980000000000D+02 -.641562500000D+02  .442018411841D-08 -.208909886740D+01
    -.321492552757D-05  .263252353761D-02  .783242285252D-05  .515369598198D+04
     .223200000000D+06 -.596046447754D-07  .573014853146D+00  .298023223877D-07
     .967797845556D+00  .234718750000D+03 -.629672292287D+00 -.801390523989D-08
     .239295681911D-10  .100000000000D+01  .196800000000D+04  .000000000000D+00
     .240000000000D+01  .000000000000D+00  .558793544769D-08  .610000000000D+03
     .216006000000D+06  .400000000000D+01
 9 17  9 26 14  0  0.0  .448841135949D-03  .591171556152D-11  .000000000000D+00
     .100000000000D+01  .100625000000D+02  .461983529183D-08 -.242498009367D+01
     .465661287308D-06  .824655406177D-03  .920705497265D-05  .515376848030D+04
     .223200000000D+06  .391155481339D-07 -.256862340253D+01 -.502914190292D-07
     .953478674660D+00  .200343750000D+03  .184133031617D+01 -.800390482333D-08
    -.345371528968D-09  .100000000000D+01  .196800000000D+04  .000000000000D+00
     .240000000000D+01  .000000000000D+00  .931322574615D-09  .769000000000D+03
     .216006000000D+06  .400000000000D+01
10 17  9 26 14  0  0.0  .744163990021D-04  .932232069317D-11  .000000000000D+00
     .940000000000D+02 -.178125000000D+02  .475126933801D-08 -.540803077933D+00
    -.112131237984D-05  .278508977499D-02  .706315040588D-05  .515366577721D+04
     .223200000000D+06  .912696123123D-07  .267595113350D+01  .242143869400D-07
     .960563921926D+00  .245375000000D+03 -.286024066444D+01 -.812033824468D-08
    -.208222959036D-09  .100000000000D+01  .196800000000D+04  .000000000000D+00
     .240000000000D+01  .000000000000D+00  .186264514923D-08  .606000000000D+03
     .216006000000D+06  .400000000000D+01
11 17  9 26 14  0  0.0 -.717876944691D-03 -.216004991671D-11  .000000000000D+00
     .880000000000D+02 -.455937500000D+02  .603882296979D-08  .866058561124D+00
    -.246427953243D-05  .170649465872D-01  .858120620251D-05  .515373330498D+04
     .223200000000D+06 -.266358256340D-06  .122592191696D+01 -.197440385818D-06
     .902107530960D+00  .187375000000D+03  .169927529601D+01 -.898716006558D-08
     .223223583873D-09  .100000000000D+01  .196800000000D+04  .000000000000D+00
     .240000000000D+01  .000000000000D+00 -.121071934700D-07  .856000000000D+03
     .216006000000D+06  .400000000000D+01
12 17  9 26 14  0  0.0  .371391419321D-03 -.136424205266D-11  .000000000000D+00
     .135000000000D+03 -.853125000000D+01  .404445418204D-08  .234934318255D+00
    -.596046447754D-06  .654101965483D-02  .491924583912D-05  .515371496582D+04
     .223200000000D+06 -.149011611938D-07 -.402744651954D+00  .106170773506D-06
     .988644573015D+00  .304093750000D+03  .913697398501D+00 -.804997817105D-08
    -.182150444440D-10  .100000000000D+01  .196800000000D+04  .000000000000D+00
     .240000000000D+01  .000000000000D+00 -.125728547573D-07  .647000000000D+03
     .216006000000D+06  .400000000000D+01
13 17  9 26 14  0  0.0 -.919559970498D-04 -.568434188608D-12  .000000000000D+00
     .163000000000D+03  .219062500000D+02  .414302971667D-08  .208756947871D+01
     .116042792797D-05  .350408535451D-02  .950694084167D-05  .515365980530D+04
     .223200000000D+06  .894069671631D-07 -.244058284352D+01  .502914190292D-07
     .969350699450D+00  .200000000000D+03  .173434088939D+01 -.777889545079D-08
    -.180007498035D-09  .100000000000D+01  .196800000000D+04  .000000000000D+00
     .240000000000D+01  .000000000000D+00 -.111758708954D-07  .675000000000D+03
     .216006000000D+06  .400000000000D+01
